[{"OBJECT_NAME":"STARLINK-32650","OBJECT_ID":"2024-231P","EPOCH":"2026-03-09T16:12:37.159776","MEAN_MOTION":15.30203554,"ECCENTRICITY":0.00011617,"INCLINATION":53.161,"RA_OF_ASC_NODE":219.8771,"ARG_OF_PERICENTER":85.7123,"MEAN_ANOMALY":274.401,"EPHEMERIS_TYPE":0,"CLASSIFICATION_TYPE":"U","NORAD_CAT_ID":62231,"ELEMENT_SET_NO":999,"REV_AT_EPOCH":7176,"BSTAR":0.0010614358,"MEAN_MOTION_DOT":0.00031213,"MEAN_MOTION_DDOT":0},{"OBJECT_NAME":"TITAN 3C TRANSTAGE DEB","OBJECT_ID":"1965-108AH","EPOCH":"2026-03-08T17:48:02.724480","MEAN_MOTION":5.86598029,"ECCENTRICITY":0.47540309,"INCLINATION":27.254,"RA_OF_ASC_NODE":316.1669,"ARG_OF_PERICENTER":20.2025,"MEAN_ANOMALY":353.6228,"EPHEMERIS_TYPE":0,"CLASSIFICATION_TYPE":"U","NORAD_CAT_ID":26049,"ELEMENT_SET_NO":999,"REV_AT_EPOCH":10429,"BSTAR":0.016703702,"MEAN_MOTION_DOT":0.00021794,"MEAN_MOTION_DDOT":0}]
